CCSDS_OMM_VERS = 2.0
CREATION_DATE  = 
ORIGINATOR     = 

OBJECT_NAME    = STARLINK-36809
OBJECT_ID      = 2026-036AB
CENTER_NAME    = EARTH
REF_FRAME      = TEME
TIME_SYSTEM    = UTC
MEAN_ELEMENT_THEORY = SGP/SGP4

EPOCH          = 2026-03-17T14:00:01.999872
MEAN_MOTION    = 15.53942469
ECCENTRICITY   = .0001563
INCLINATION    = 42.9998
RA_OF_ASC_NODE = 202.0097
ARG_OF_PERICENTER = 274.9532
MEAN_ANOMALY   = 97.8471

EPHEMERIS_TYPE = 0
CLASSIFICATION_TYPE = U
NORAD_CAT_ID   = 67929
ELEMENT_SET_NO = 999
REV_AT_EPOCH   = 491
BSTAR          = -.32603422E-1
MEAN_MOTION_DOT = -.1903857E-1
MEAN_MOTION_DDOT = 0

CCSDS_OMM_VERS = 2.0
CREATION_DATE  = 
ORIGINATOR     = 

OBJECT_NAME    = STARLINK-36865
OBJECT_ID      = 2026-036AC
CENTER_NAME    = EARTH
REF_FRAME      = TEME
TIME_SYSTEM    = UTC
MEAN_ELEMENT_THEORY = SGP/SGP4

EPOCH          = 2026-03-17T14:00:01.999872
MEAN_MOTION    = 15.58549697
ECCENTRICITY   = .00014119
INCLINATION    = 42.9999
RA_OF_ASC_NODE = 201.7355
ARG_OF_PERICENTER = 285.8068
MEAN_ANOMALY   = 197.7361

EPHEMERIS_TYPE = 0
CLASSIFICATION_TYPE = U
NORAD_CAT_ID   = 67930
ELEMENT_SET_NO = 999
REV_AT_EPOCH   = 491
BSTAR          = -.27506036E-1
MEAN_MOTION_DOT = -.1908985E-1
MEAN_MOTION_DDOT = 0

CCSDS_OMM_VERS = 2.0
CREATION_DATE  = 
ORIGINATOR     = 

OBJECT_NAME    = STARLINK-36781
OBJECT_ID      = 2026-036AD
CENTER_NAME    = EARTH
REF_FRAME      = TEME
TIME_SYSTEM    = UTC
MEAN_ELEMENT_THEORY = SGP/SGP4

EPOCH          = 2026-03-17T14:00:01.999872
MEAN_MOTION    = 15.57956081
ECCENTRICITY   = .0001446
INCLINATION    = 42.9996
RA_OF_ASC_NODE = 201.7764
ARG_OF_PERICENTER = 285.6561
MEAN_ANOMALY   = 181.4490

EPHEMERIS_TYPE = 0
CLASSIFICATION_TYPE = U
NORAD_CAT_ID   = 67931
ELEMENT_SET_NO = 999
REV_AT_EPOCH   = 491
BSTAR          = -.28146573E-1
MEAN_MOTION_DOT = -.1909617E-1
MEAN_MOTION_DDOT = 0

CCSDS_OMM_VERS = 2.0
CREATION_DATE  = 
ORIGINATOR     = 

OBJECT_NAME    = STARLINK-36301
OBJECT_ID      = 2026-037A
CENTER_NAME    = EARTH
REF_FRAME      = TEME
TIME_SYSTEM    = UTC
MEAN_ELEMENT_THEORY = SGP/SGP4

EPOCH          = 2026-03-17T12:48:33.859008
MEAN_MOTION    = 15.82069473
ECCENTRICITY   = .00015156
INCLINATION    = 42.9978
RA_OF_ASC_NODE = 150.5065
ARG_OF_PERICENTER = 284.0750
MEAN_ANOMALY   = 75.9954

EPHEMERIS_TYPE = 0
CLASSIFICATION_TYPE = U
NORAD_CAT_ID   = 67932
ELEMENT_SET_NO = 999
REV_AT_EPOCH   = 449
BSTAR          = .89574307E-3
MEAN_MOTION_DOT = .192818E-2
MEAN_MOTION_DDOT = 0

CCSDS_OMM_VERS = 2.0
CREATION_DATE  = 
ORIGINATOR     = 

OBJECT_NAME    = STARLINK-36852
OBJECT_ID      = 2026-037B
CENTER_NAME    = EARTH
REF_FRAME      = TEME
TIME_SYSTEM    = UTC
MEAN_ELEMENT_THEORY = SGP/SGP4

EPOCH          = 2026-03-17T14:00:01.999872
MEAN_MOTION    = 15.66293075
ECCENTRICITY   = .00012028
INCLINATION    = 42.9996
RA_OF_ASC_NODE = 150.4589
ARG_OF_PERICENTER = 288.2422
MEAN_ANOMALY   = 253.1213

EPHEMERIS_TYPE = 0
CLASSIFICATION_TYPE = U
NORAD_CAT_ID   = 67933
ELEMENT_SET_NO = 999
REV_AT_EPOCH   = 446
BSTAR          = -.19792073E-1
MEAN_MOTION_DOT = -.1869855E-1
MEAN_MOTION_DDOT = 0

CCSDS_OMM_VERS = 2.0
CREATION_DATE  = 
ORIGINATOR     = 

OBJECT_NAME    = STARLINK-36861
OBJECT_ID      = 2026-037C
CENTER_NAME    = EARTH
REF_FRAME      = TEME
TIME_SYSTEM    = UTC
MEAN_ELEMENT_THEORY = SGP/SGP4

EPOCH          = 2026-03-17T05:11:58.458912
MEAN_MOTION    = 15.81347431
ECCENTRICITY   = .00015392
INCLINATION    = 42.9980
RA_OF_ASC_NODE = 152.4288
ARG_OF_PERICENTER = 274.3291
MEAN_ANOMALY   = 85.7405

EPHEMERIS_TYPE = 0
CLASSIFICATION_TYPE = U
NORAD_CAT_ID   = 67934
ELEMENT_SET_NO = 999
REV_AT_EPOCH   = 444
BSTAR          = -.30934846E-2
MEAN_MOTION_DOT = -.590592E-2
MEAN_MOTION_DDOT = 0

CCSDS_OMM_VERS = 2.0
CREATION_DATE  = 
ORIGINATOR     = 

OBJECT_NAME    = STARLINK-36860
OBJECT_ID      = 2026-037D
CENTER_NAME    = EARTH
REF_FRAME      = TEME
TIME_SYSTEM    = UTC
MEAN_ELEMENT_THEORY = SGP/SGP4

EPOCH          = 2026-03-17T14:00:01.999872
MEAN_MOTION    = 15.71869627
ECCENTRICITY   = .00012263
INCLINATION    = 42.9996
RA_OF_ASC_NODE = 150.2840
ARG_OF_PERICENTER = 275.6048
MEAN_ANOMALY   = 336.0873

EPHEMERIS_TYPE = 0
CLASSIFICATION_TYPE = U
NORAD_CAT_ID   = 67935
ELEMENT_SET_NO = 999
REV_AT_EPOCH   = 446
BSTAR          = -.16098007E-1
MEAN_MOTION_DOT = -.1914421E-1
MEAN_MOTION_DDOT = 0

CCSDS_OMM_VERS = 2.0
CREATION_DATE  = 
ORIGINATOR     = 

OBJECT_NAME    = STARLINK-36848
OBJECT_ID      = 2026-037E
CENTER_NAME    = EARTH
REF_FRAME      = TEME
TIME_SYSTEM    = UTC
MEAN_ELEMENT_THEORY = SGP/SGP4

EPOCH          = 2026-03-17T14:00:01.999872
MEAN_MOTION    = 15.69389032
ECCENTRICITY   = .00012463
INCLINATION    = 42.9999
RA_OF_ASC_NODE = 150.3226
ARG_OF_PERICENTER = 275.7264
MEAN_ANOMALY   = 320.2280

EPHEMERIS_TYPE = 0
CLASSIFICATION_TYPE = U
NORAD_CAT_ID   = 67936
ELEMENT_SET_NO = 999
REV_AT_EPOCH   = 446
BSTAR          = -.17843738E-1
MEAN_MOTION_DOT = -.1910736E-1
MEAN_MOTION_DDOT = 0

CCSDS_OMM_VERS = 2.0
CREATION_DATE  = 
ORIGINATOR     = 

OBJECT_NAME    = STARLINK-36370
OBJECT_ID      = 2026-037F
CENTER_NAME    = EARTH
REF_FRAME      = TEME
TIME_SYSTEM    = UTC
MEAN_ELEMENT_THEORY = SGP/SGP4

EPOCH          = 2026-03-17T14:00:01.999872
MEAN_MOTION    = 15.72751322
ECCENTRICITY   = .0001299
INCLINATION    = 42.9996
RA_OF_ASC_NODE = 150.2550
ARG_OF_PERICENTER = 275.8373
MEAN_ANOMALY   = 347.5204

EPHEMERIS_TYPE = 0
CLASSIFICATION_TYPE = U
NORAD_CAT_ID   = 67937
ELEMENT_SET_NO = 999
REV_AT_EPOCH   = 446
BSTAR          = -.15479353E-1
MEAN_MOTION_DOT = -.1874626E-1
MEAN_MOTION_DDOT = 0

CCSDS_OMM_VERS = 2.0
CREATION_DATE  = 
ORIGINATOR     = 

OBJECT_NAME    = STARLINK-36371
OBJECT_ID      = 2026-037G
CENTER_NAME    = EARTH
REF_FRAME      = TEME
TIME_SYSTEM    = UTC
MEAN_ELEMENT_THEORY = SGP/SGP4

EPOCH          = 2026-03-17T14:00:01.999872
MEAN_MOTION    = 15.76643822
ECCENTRICITY   = .00012003
INCLINATION    = 42.9995
RA_OF_ASC_NODE = 150.1709
ARG_OF_PERICENTER = 275.8707
MEAN_ANOMALY   = 20.5051

EPHEMERIS_TYPE = 0
CLASSIFICATION_TYPE = U
NORAD_CAT_ID   = 67938
ELEMENT_SET_NO = 999
REV_AT_EPOCH   = 446
BSTAR          = -.13068367E-1
MEAN_MOTION_DOT = -.1878379E-1
MEAN_MOTION_DDOT = 0

CCSDS_OMM_VERS = 2.0
CREATION_DATE  = 
ORIGINATOR     = 

OBJECT_NAME    = STARLINK-36246
OBJECT_ID      = 2026-037H
CENTER_NAME    = EARTH
REF_FRAME      = TEME
TIME_SYSTEM    = UTC
MEAN_ELEMENT_THEORY = SGP/SGP4

EPOCH          = 2026-03-17T14:00:01.999872
MEAN_MOTION    = 15.70193125
ECCENTRICITY   = .00012603
INCLINATION    = 42.9998
RA_OF_ASC_NODE = 150.2800
ARG_OF_PERICENTER = 274.9841
MEAN_ANOMALY   = 337.9912

EPHEMERIS_TYPE = 0
CLASSIFICATION_TYPE = U
NORAD_CAT_ID   = 67939
ELEMENT_SET_NO = 999
REV_AT_EPOCH   = 437
BSTAR          = -.17248615E-1
MEAN_MOTION_DOT = -.1910583E-1
MEAN_MOTION_DDOT = 0

CCSDS_OMM_VERS = 2.0
CREATION_DATE  = 
ORIGINATOR     = 

OBJECT_NAME    = STARLINK-36907
OBJECT_ID      = 2026-037J
CENTER_NAME    = EARTH
REF_FRAME      = TEME
TIME_SYSTEM    = UTC
MEAN_ELEMENT_THEORY = SGP/SGP4

EPOCH          = 2026-03-17T14:08:43.049760
MEAN_MOTION    = 15.81829520
ECCENTRICITY   = .00017563
INCLINATION    = 42.9984
RA_OF_ASC_NODE = 150.0574
ARG_OF_PERICENTER = 296.0085
MEAN_ANOMALY   = 64.0606

EPHEMERIS_TYPE = 0
CLASSIFICATION_TYPE = U
NORAD_CAT_ID   = 67940
ELEMENT_SET_NO = 999
REV_AT_EPOCH   = 450
BSTAR          = -.89967687E-3
MEAN_MOTION_DOT = -.184393E-2
MEAN_MOTION_DDOT = 0

