STARLINK-36809          
1 67929U 26036AB  26076.58335648 -.01903857  00000+0 -32603-1 0  9992
2 67929  42.9998 202.0097 0001563 274.9532  97.8471 15.53942469  4911
STARLINK-36865          
1 67930U 26036AC  26076.58335648 -.01908985  00000+0 -27506-1 0  9997
2 67930  42.9999 201.7355 0001411 285.8068 197.7361 15.58549697  4913
STARLINK-36781          
1 67931U 26036AD  26076.58335648 -.01909617  00000+0 -28147-1 0  9993
2 67931  42.9996 201.7764 0001446 285.6561 181.4490 15.57956081  4910
STARLINK-36301          
1 67932U 26037A   26076.53372522  .00192818  00000+0  89574-3 0  9999
2 67932  42.9978 150.5065 0001515 284.0750  75.9954 15.82069473  4499
STARLINK-36852          
1 67933U 26037B   26076.58335648 -.01869855  00000+0 -19792-1 0  9991
2 67933  42.9996 150.4589 0001202 288.2422 253.1213 15.66293075  4469
STARLINK-36861          
1 67934U 26037C   26076.21664883 -.00590592  00000+0 -30935-2 0  9999
2 67934  42.9980 152.4288 0001539 274.3291  85.7405 15.81347431  4447
STARLINK-36860          
1 67935U 26037D   26076.58335648 -.01914421  00000+0 -16098-1 0  9999
2 67935  42.9996 150.2840 0001226 275.6048 336.0873 15.71869627  4460
STARLINK-36848          
1 67936U 26037E   26076.58335648 -.01910736  00000+0 -17844-1 0  9995
2 67936  42.9999 150.3226 0001246 275.7264 320.2280 15.69389032  4467
STARLINK-36370          
1 67937U 26037F   26076.58335648 -.01874626  00000+0 -15479-1 0  9995
2 67937  42.9996 150.2550 0001299 275.8373 347.5204 15.72751322  4461
STARLINK-36371          
1 67938U 26037G   26076.58335648 -.01878379  00000+0 -13068-1 0  9997
2 67938  42.9995 150.1709 0001200 275.8707  20.5051 15.76643822  4466
STARLINK-36246          
1 67939U 26037H   26076.58335648 -.01910583  00000+0 -17249-1 0  9997
2 67939  42.9998 150.2800 0001260 274.9841 337.9912 15.70193125  4379
STARLINK-36907          
1 67940U 26037J   26076.58938715 -.00184393  00000+0 -89968-3 0  9993
2 67940  42.9984 150.0574 0001756 296.0085  64.0606 15.81829520  4507
